{"type": "FeatureCollection", "features": [ {"type": "Feature", "properties": {"norad_id": 31269, "name": "FENGYUN 1C DEB", "group": "fengyun-1c-debris", "lat": 80.24032209607944, "lon": 102.99426705287566, "alt_km": 909.2050335505846, "timestamp": "2025-12-14T05:42:18.741945+00:00", "meta": {"OBJECT_NAME": "FENGYUN 1C DEB", "OBJECT_ID": "1999-025BNB", "EPOCH": "2025-12-13T03:22:04.185408", "MEAN_MOTION": 14.43712576, "ECCENTRICITY": 0.02400178, "INCLINATION": 98.1796, "RA_OF_ASC_NODE": 225.1965, "ARG_OF_PERICENTER": 274.3198, "MEAN_ANOMALY": 240.9511, "EPHEMERIS_TYPE": 0, "CLASSIFICATION_TYPE": "U", "NORAD_CAT_ID": 31269, "ELEMENT_SET_NO": 999, "REV_AT_EPOCH": 96492, "BSTAR": 0.0030635404, "MEAN_MOTION_DOT": 0.00014766, "MEAN_MOTION_DDOT": 0}, "tle": {"line1": "1 31269U 99025BNB 25347.14032622  .00014766  00000+0  30635-2 0  9999", "line2": "2 31269  98.1796 225.1965 0240017 274.3198 240.9511 14.43712576964923"}}, "geometry": {"type": "Point", "coordinates": [102.99426705287566, 80.24032209607944]}}, {"type": "Feature", "properties": {"norad_id": 31272, "name": "FENGYUN 1C DEB", "group": "fengyun-1c-debris", "lat": 38.269264908335586, "lon": 47.34543181831071, "alt_km": 747.5686952986453, "timestamp": "2025-12-14T05:42:18.741955+00:00", "meta": {"OBJECT_NAME": "FENGYUN 1C DEB", "OBJECT_ID": "1999-025BNE", "EPOCH": "2025-12-12T09:10:29.413632", "MEAN_MOTION": 14.22918429, "ECCENTRICITY": 0.0106751, "INCLINATION": 99.0919, "RA_OF_ASC_NODE": 218.1733, "ARG_OF_PERICENTER": 113.8737, "MEAN_ANOMALY": 247.3669, "EPHEMERIS_TYPE": 0, "CLASSIFICATION_TYPE": "U", "NORAD_CAT_ID": 31272, "ELEMENT_SET_NO": 999, "REV_AT_EPOCH": 96984, "BSTAR": 0.00068391166, "MEAN_MOTION_DOT": 1.585e-05, "MEAN_MOTION_DDOT": 0}, "tle": {"line1": "1 31272U 99025BNE 25346.38228488  .00001585  00000+0  68391-3 0  9991", "line2": "2 31272  99.0919 218.1733 0106751 113.8737 247.3669 14.22918429969844"}}, "geometry": {"type": "Point", "coordinates": [47.34543181831071, 38.269264908335586]}}, {"type": "Feature", "properties": {"norad_id": 31274, "name": "FENGYUN 1C DEB", "group": "fengyun-1c-debris", "lat": 49.609379937186354, "lon": -1.7089406476982882, "alt_km": 778.7120947633503, "timestamp": "2025-12-14T05:42:18.741965+00:00", "meta": {"OBJECT_NAME": "FENGYUN 1C DEB", "OBJECT_ID": "1999-025BNG", "EPOCH": "2025-12-12T06:18:32.012928", "MEAN_MOTION": 13.85625998, "ECCENTRICITY": 0.02381986, "INCLINATION": 99.0045, "RA_OF_ASC_NODE": 165.6507, "ARG_OF_PERICENTER": 111.3566, "MEAN_ANOMALY": 251.319, "EPHEMERIS_TYPE": 0, "CLASSIFICATION_TYPE": "U", "NORAD_CAT_ID": 31274, "ELEMENT_SET_NO": 999, "REV_AT_EPOCH": 94200, "BSTAR": 0.0012680057, "MEAN_MOTION_DOT": 1.769e-05, "MEAN_MOTION_DDOT": 0}, "tle": {"line1": "1 31274U 99025BNG 25346.26287052  .00001769  00000+0  12680-2 0  9995", "line2": "2 31274  99.0045 165.6507 0238198 111.3566 251.3190 13.85625998942002"}}, "geometry": {"type": "Point", "coordinates": [-1.7089406476982882, 49.609379937186354]}}, {"type": "Feature", "properties": {"norad_id": 31275, "name": "FENGYUN 1C DEB", "group": "fengyun-1c-debris", "lat": 51.670379432869744, "lon": 20.05190329450693, "alt_km": 846.887081367513, "timestamp": "2025-12-14T05:42:18.741975+00:00", "meta": {"OBJECT_NAME": "FENGYUN 1C DEB", "OBJECT_ID": "1999-025BNH", "EPOCH": "2025-12-13T14:02:53.007936", "MEAN_MOTION": 14.02324804, "ECCENTRICITY": 0.01037176, "INCLINATION": 98.9461, "RA_OF_ASC_NODE": 30.9041, "ARG_OF_PERICENTER": 350.7508, "MEAN_ANOMALY": 9.1745, "EPHEMERIS_TYPE": 0, "CLASSIFICATION_TYPE": "U", "NORAD_CAT_ID": 31275, "ELEMENT_SET_NO": 999, "REV_AT_EPOCH": 95498, "BSTAR": 0.0011457016, "MEAN_MOTION_DOT": 1.798e-05, "MEAN_MOTION_DDOT": 0}, "tle": {"line1": "1 31275U 99025BNH 25347.58533574  .00001798  00000+0  11457-2 0  9998", "line2": "2 31275  98.9461  30.9041 0103717 350.7508   9.1745 14.02324804954980"}}, "geometry": {"type": "Point", "coordinates": [20.05190329450693, 51.670379432869744]}}, {"type": "Feature", "properties": {"norad_id": 31279, "name": "FENGYUN 1C DEB", "group": "fengyun-1c-debris", "lat": -20.891350842238655, "lon": -0.23722687655874722, "alt_km": 860.6369264608993, "timestamp": "2025-12-14T05:42:18.741985+00:00", "meta": {"OBJECT_NAME": "FENGYUN 1C DEB", "OBJECT_ID": "1999-025BNM", "EPOCH": "2025-12-13T06:14:04.668000", "MEAN_MOTION": 14.26309993, "ECCENTRICITY": 0.00737949, "INCLINATION": 98.5172, "RA_OF_ASC_NODE": 355.5327, "ARG_OF_PERICENTER": 176.1147, "MEAN_ANOMALY": 184.0623, "EPHEMERIS_TYPE": 0, "CLASSIFICATION_TYPE": "U", "NORAD_CAT_ID": 31279, "ELEMENT_SET_NO": 999, "REV_AT_EPOCH": 97236, "BSTAR": 0.00072823892, "MEAN_MOTION_DOT": 1.757e-05, "MEAN_MOTION_DDOT": 0}, "tle": {"line1": "1 31279U 99025BNM 25347.25977625  .00001757  00000+0  72824-3 0  9996", "line2": "2 31279  98.5172 355.5327 0073794 176.1147 184.0623 14.26309993972360"}}, "geometry": {"type": "Point", "coordinates": [-0.23722687655874722, -20.891350842238655]}}, {"type": "Feature", "properties": {"norad_id": 31281, "name": "FENGYUN 1C DEB", "group": "fengyun-1c-debris", "lat": 47.836356053299504, "lon": 114.14729619808979, "alt_km": 447.02193479079233, "timestamp": "2025-12-14T05:42:18.741995+00:00", "meta": {"OBJECT_NAME": "FENGYUN 1C DEB", "OBJECT_ID": "1999-025BNP", "EPOCH": "2025-12-13T02:35:26.612160", "MEAN_MOTION": 15.17418933, "ECCENTRICITY": 0.01137239, "INCLINATION": 98.3848, "RA_OF_ASC_NODE": 122.2711, "ARG_OF_PERICENTER": 90.3673, "MEAN_ANOMALY": 271.059, "EPHEMERIS_TYPE": 0, "CLASSIFICATION_TYPE": "U", "NORAD_CAT_ID": 31281, "ELEMENT_SET_NO": 999, "REV_AT_EPOCH": 99737, "BSTAR": 0.0018487691, "MEAN_MOTION_DOT": 0.00043882, "MEAN_MOTION_DDOT": 0}, "tle": {"line1": "1 31281U 99025BNP 25347.10794690  .00043882  00000+0  18488-2 0  9992", "line2": "2 31281  98.3848 122.2711 0113723  90.3673 271.0590 15.17418933997379"}}, "geometry": {"type": "Point", "coordinates": [114.14729619808979, 47.836356053299504]}}, {"type": "Feature", "properties": {"norad_id": 31282, "name": "FENGYUN 1C DEB", "group": "fengyun-1c-debris", "lat": 27.17080676989114, "lon": -99.14681389884575, "alt_km": 769.1484176026543, "timestamp": "2025-12-14T05:42:18.742006+00:00", "meta": {"OBJECT_NAME": "FENGYUN 1C DEB", "OBJECT_ID": "1999-025BNQ", "EPOCH": "2025-12-12T11:59:16.641888", "MEAN_MOTION": 14.43467925, "ECCENTRICITY": 0.01270675, "INCLINATION": 99.2168, "RA_OF_ASC_NODE": 263.7536, "ARG_OF_PERICENTER": 287.209, "MEAN_ANOMALY": 71.5222, "EPHEMERIS_TYPE": 0, "CLASSIFICATION_TYPE": "U", "NORAD_CAT_ID": 31282, "ELEMENT_SET_NO": 999, "REV_AT_EPOCH": 97117, "BSTAR": 0.00040716141, "MEAN_MOTION_DOT": 1.46e-05, "MEAN_MOTION_DDOT": 0}, "tle": {"line1": "1 31282U 99025BNQ 25346.49949817  .00001460  00000+0  40716-3 0  9993", "line2": "2 31282  99.2168 263.7536 0127067 287.2090  71.5222 14.43467925971175"}}, "geometry": {"type": "Point", "coordinates": [-99.14681389884575, 27.17080676989114]}}, {"type": "Feature", "properties": {"norad_id": 31284, "name": "FENGYUN 1C DEB", "group": "fengyun-1c-debris", "lat": 62.18884224224272, "lon": 63.75480486926247, "alt_km": 792.123517024148, "timestamp": "2025-12-14T05:42:18.742016+00:00", "meta": {"OBJECT_NAME": "FENGYUN 1C DEB", "OBJECT_ID": "1999-025BNS", "EPOCH": "2025-12-12T12:10:56.094816", "MEAN_MOTION": 13.97898481, "ECCENTRICITY": 0.01429897, "INCLINATION": 99.7223, "RA_OF_ASC_NODE": 80.8899, "ARG_OF_PERICENTER": 59.3659, "MEAN_ANOMALY": 302.1512, "EPHEMERIS_TYPE": 0, "CLASSIFICATION_TYPE": "U", "NORAD_CAT_ID": 31284, "ELEMENT_SET_NO": 999, "REV_AT_EPOCH": 95159, "BSTAR": 0.00078444655, "MEAN_MOTION_DOT": 1.164e-05, "MEAN_MOTION_DDOT": 0}, "tle": {"line1": "1 31284U 99025BNS 25346.50759369  .00001164  00000+0  78445-3 0  9999", "line2": "2 31284  99.7223  80.8899 0142989  59.3659 302.1512 13.97898481951595"}}, "geometry": {"type": "Point", "coordinates": [63.75480486926247, 62.18884224224272]}}, {"type": "Feature", "properties": {"norad_id": 31285, "name": "FENGYUN 1C DEB", "group": "fengyun-1c-debris", "lat": -21.492705247709324, "lon": 145.22727684243367, "alt_km": 674.4801405142989, "timestamp": "2025-12-14T05:42:18.742026+00:00", "meta": {"OBJECT_NAME": "FENGYUN 1C DEB", "OBJECT_ID": "1999-025BNT", "EPOCH": "2025-12-11T10:09:15.203232", "MEAN_MOTION": 14.26037895, "ECCENTRICITY": 0.01996034, "INCLINATION": 98.5188, "RA_OF_ASC_NODE": 325.8722, "ARG_OF_PERICENTER": 190.7189, "MEAN_ANOMALY": 328.8482, "EPHEMERIS_TYPE": 0, "CLASSIFICATION_TYPE": "U", "NORAD_CAT_ID": 31285, "ELEMENT_SET_NO": 999, "REV_AT_EPOCH": 97280, "BSTAR": 0.00028481858, "MEAN_MOTION_DOT": 7.92e-06, "MEAN_MOTION_DDOT": 0}, "tle": {"line1": "1 31285U 99025BNT 25345.42309263  .00000792  00000+0  28482-3 0  9996", "line2": "2 31285  98.5188 325.8722 0199603 190.7189 328.8482 14.26037895972808"}}, "geometry": {"type": "Point", "coordinates": [145.22727684243367, -21.492705247709324]}}, {"type": "Feature", "properties": {"norad_id": 31286, "name": "FENGYUN 1C DEB", "group": "fengyun-1c-debris", "lat": -49.94097083336341, "lon": -107.60696896730596, "alt_km": 774.3009299124842, "timestamp": "2025-12-14T05:42:18.742058+00:00", "meta": {"OBJECT_NAME": "FENGYUN 1C DEB", "OBJECT_ID": "1999-025BNU", "EPOCH": "2025-12-12T11:45:00.592416", "MEAN_MOTION": 14.22753144, "ECCENTRICITY": 0.00802109, "INCLINATION": 100.8574, "RA_OF_ASC_NODE": 237.0493, "ARG_OF_PERICENTER": 280.368, "MEAN_ANOMALY": 78.8457, "EPHEMERIS_TYPE": 0, "CLASSIFICATION_TYPE": "U", "NORAD_CAT_ID": 31286, "ELEMENT_SET_NO": 999, "REV_AT_EPOCH": 64016, "BSTAR": 0.0045153979, "MEAN_MOTION_DOT": 0.00010416, "MEAN_MOTION_DDOT": 0}, "tle": {"line1": "1 31286U 99025BNU 25346.48959019  .00010416  00000+0  45154-2 0  9992", "line2": "2 31286 100.8574 237.0493 0080210 280.3680  78.8457 14.22753144640162"}}, "geometry": {"type": "Point", "coordinates": [-107.60696896730596, -49.94097083336341]}}]}